{
    "links": {
        "self": "http://www.neowsapp.com/rest/v1/neo/3840795?api_key=iIulBulltgU6a56xZRHN4H3l9WmuAYTsLGpBGhQ2"
    },
    "id": "3840795",
    "neo_reference_id": "3840795",
    "name": "(2019 GQ1)",
    "designation": "2019 GQ1",
    "nasa_jpl_url": "http://ssd.jpl.nasa.gov/sbdb.cgi?sstr=3840795",
    "absolute_magnitude_h": 24.8,
    "estimated_diameter": {
        "kilometers": {
            "estimated_diameter_min": 0.0291443905,
            "estimated_diameter_max": 0.0651688382
        },
        "meters": {
            "estimated_diameter_min": 29.1443904535,
            "estimated_diameter_max": 65.1688382168
        },
        "miles": {
            "estimated_diameter_min": 0.018109479,
            "estimated_diameter_max": 0.0404940262
        },
        "feet": {
            "estimated_diameter_min": 95.6180819754,
            "estimated_diameter_max": 213.8085311752
        }
    },
    "is_potentially_hazardous_asteroid": false,
    "close_approach_data": [
        {
            "close_approach_date": "2015-09-17",
            "close_approach_date_full": "2015-Sep-17 16:03",
            "epoch_date_close_approach": 1442505780000,
            "relative_velocity": {
                "kilometers_per_second": "15.5868469545",
                "kilometers_per_hour": "56112.649036286",
                "miles_per_hour": "34866.2179525745"
            },
            "miss_distance": {
                "astronomical": "0.3574280181",
                "lunar": "139.0394990409",
                "kilometers": "53470470.186081447",
                "miles": "33225009.5094680886"
            },
            "orbiting_body": "Earth"
        },
        {
            "close_approach_date": "2019-04-12",
            "close_approach_date_full": "2019-Apr-12 13:11",
            "epoch_date_close_approach": 1555074660000,
            "relative_velocity": {
                "kilometers_per_second": "12.6657999916",
                "kilometers_per_hour": "45596.8799696855",
                "miles_per_hour": "28332.1280011637"
            },
            "miss_distance": {
                "astronomical": "0.034412472",
                "lunar": "13.386451608",
                "kilometers": "5148032.51263464",
                "miles": "3198839.071212432"
            },
            "orbiting_body": "Earth"
        },
        {
            "close_approach_date": "2019-10-05",
            "close_approach_date_full": "2019-Oct-05 09:08",
            "epoch_date_close_approach": 1570266480000,
            "relative_velocity": {
                "kilometers_per_second": "11.3381374281",
                "kilometers_per_hour": "40817.2947410808",
                "miles_per_hour": "25362.2796128677"
            },
            "miss_distance": {
                "astronomical": "0.2825449173",
                "lunar": "109.9099728297",
                "kilometers": "42268117.807406151",
                "miles": "26264190.5188248438"
            },
            "orbiting_body": "Earth"
        }
    ],
    "orbital_data": {
        "orbit_id": "3",
        "orbit_determination_date": "2019-04-15 14:25:52",
        "first_observation_date": "2019-04-03",
        "last_observation_date": "2019-04-10",
        "data_arc_in_days": 7,
        "observations_used": 24,
        "orbit_uncertainty": "8",
        "minimum_orbit_intersection": ".0238166",
        "jupiter_tisserand_invariant": "5.231",
        "epoch_osculation": "2458578.5",
        "eccentricity": ".2037307771448033",
        "semi_major_axis": "1.194630178899283",
        "inclination": "21.13691931068998",
        "ascending_node_longitude": "21.63872850949018",
        "orbital_period": "476.9234198844057",
        "perihelion_distance": ".9512472441514968",
        "perihelion_argument": "236.2189503563547",
        "aphelion_distance": "1.43801311364707",
        "perihelion_time": "2458635.013398659505",
        "mean_anomaly": "317.3415297526113",
        "mean_motion": ".7548381668638855",
        "equinox": "J2000",
        "orbit_class": {
            "orbit_class_type": "APO",
            "orbit_class_description": "Near-Earth asteroid orbits which cross the Earth’s orbit similar to that of 1862 Apollo",
            "orbit_class_range": "a (semi-major axis) > 1.0 AU; q (perihelion) < 1.017 AU"
        }
    },
    "is_sentry_object": false
}